COSMOS 1892             
1 18421U 87088A   25317.76693558  .00479310  98273-4  92659-3 0  9995
2 18421  82.4660  76.4358 0006262 280.7366  79.3207 16.00341691 86671
SL-14 R/B               
1 18749U 88001B   25317.47543035  .00001193  00000+0  13558-3 0  9993
2 18749  82.5107 304.6774 0016480 262.1740  97.7606 14.85377985 24778
COSMOS 1933             
1 18958U 88020A   25317.46481880  .00010202  00000+0  51789-3 0  9993
2 18958  82.5163   5.7965 0003280 229.0970 130.9979 15.16788227 32608
SL-3 R/B                
1 19046U 88032B   25317.86762156  .00011305  00000+0  54941-3 0  9995
2 19046  97.5056 296.8017 0024838 278.5809  81.2611 15.18326056 34521
SL-16 R/B               
1 19120U 88039B   25317.43398735  .00000042  00000+0  42411-4 0  9992
2 19120  71.0143 314.3640 0021093 164.5555 195.6218 14.19589684941885
COSMOS 1953             
1 19210U 88050A   25317.86542580  .00011018  00000+0  42021-3 0  9992
2 19210  82.5069 274.5446 0012297 161.4792 198.6897 15.26478941 20106
SL-8 R/B                
1 19257U 88053B   25317.48711837  .00000694  00000+0  23353-3 0  9992
2 19257  74.0471 326.6355 0020029 180.0922 291.2639 14.38834658959885
COSMOS 1975             
1 19573U 88093A   25317.73505465  .00019447  00000+0  75702-3 0  9994
2 19573  82.5214 233.8468 0010007 211.2942 148.7701 15.25835920  1719
SL-14 R/B               
1 19574U 88093B   25317.29327208  .00001035  00000+0  11666-3 0  9996
2 19574  82.5296 151.3016 0022177  65.0651 107.7865 14.85505269983750
SL-16 R/B               
1 19650U 88102B   25317.63900088 -.00000041  00000+0  32393-5 0  9992
2 19650  71.0011  35.6728 0014725 196.9720 163.0912 14.16130270910464
INTERCOSMOS 24          
1 20261U 89080A   25317.58506186  .00001342  00000+0  39557-3 0  9994
2 20261  82.6069 179.9104 1188107 202.1511 152.3894 12.59374902652189
SL-14 R/B               
1 20262U 89080C   25317.30069522  .00000631  00000+0  18077-3 0  9997
2 20262  82.5933 247.9120 1231253  90.8425 283.3580 12.50381511645601
